{
"type": "FeatureCollection",
"name": "ignitions_2025",
"crs": { "type": "name", "properties": { "name": "urn:ogc:def:crs:EPSG::3005" } },
"features": [
{ "type": "Feature", "properties": { "fire_id": "2025_G80066", "fire_year": 2025.0, "acq_date": "2025-05-30", "ignition_doy": 150, "sdd_doy": 126.0, "days_after_sdd": 24.0, "n_first_day_hotspots": 1, "dist_to_prev_perim_m": 57808.662796928402, "nearest_prev_fire_id": "2024_G80188" }, "geometry": { "type": "Point", "coordinates": [ 1236491.141648947261274, 1318389.122998559148982 ] } },
{ "type": "Feature", "properties": { "fire_id": "2025_G80320", "fire_year": 2025.0, "acq_date": "2025-05-10", "ignition_doy": 130, "sdd_doy": 130.86, "days_after_sdd": -0.86000000000001364, "n_first_day_hotspots": 7, "dist_to_prev_perim_m": 0.0, "nearest_prev_fire_id": "2024_G90228" }, "geometry": { "type": "Point", "coordinates": [ 1291697.854003062704578, 1498146.174039639765397 ] } },
{ "type": "Feature", "properties": { "fire_id": "2025_G80352", "fire_year": 2025.0, "acq_date": "2025-05-30", "ignition_doy": 150, "sdd_doy": 152.8, "days_after_sdd": -2.8, "n_first_day_hotspots": 229, "dist_to_prev_perim_m": 35824.68170628915, "nearest_prev_fire_id": "2024_G80262" }, "geometry": { "type": "Point", "coordinates": [ 1177425.478867924306542, 1392693.57583882426843 ] } },
{ "type": "Feature", "properties": { "fire_id": "2025_G80396", "fire_year": 2025.0, "acq_date": "2025-05-29", "ignition_doy": 149, "sdd_doy": 138.25, "days_after_sdd": 10.75, "n_first_day_hotspots": 48, "dist_to_prev_perim_m": 0.0, "nearest_prev_fire_id": "2024_G80270" }, "geometry": { "type": "Point", "coordinates": [ 1254835.908825454767793, 1456801.014366345945746 ] } },
{ "type": "Feature", "properties": { "fire_id": "2025_G80402", "fire_year": 2025.0, "acq_date": "2025-05-11", "ignition_doy": 131, "sdd_doy": 130.79, "days_after_sdd": 0.21000000000000796, "n_first_day_hotspots": 10, "dist_to_prev_perim_m": 0.0, "nearest_prev_fire_id": "2024_G90228" }, "geometry": { "type": "Point", "coordinates": [ 1282616.524788633687422, 1501675.489297969266772 ] } },
{ "type": "Feature", "properties": { "fire_id": "2025_G80403", "fire_year": 2025.0, "acq_date": "2025-06-10", "ignition_doy": 161, "sdd_doy": 128.86, "days_after_sdd": 32.14, "n_first_day_hotspots": 2, "dist_to_prev_perim_m": 224.11649765601902, "nearest_prev_fire_id": "2024_G90228" }, "geometry": { "type": "Point", "coordinates": [ 1299520.410518477670848, 1499038.823631058447063 ] } },
{ "type": "Feature", "properties": { "fire_id": "2025_G80418", "fire_year": 2025.0, "acq_date": "2025-05-29", "ignition_doy": 149, "sdd_doy": 90.29, "days_after_sdd": 58.71, "n_first_day_hotspots": 7, "dist_to_prev_perim_m": 0.0, "nearest_prev_fire_id": "2024_G80270" }, "geometry": { "type": "Point", "coordinates": [ 1253891.668365668971092, 1479438.33634442766197 ] } },
{ "type": "Feature", "properties": { "fire_id": "2025_G80427", "fire_year": 2025.0, "acq_date": "2025-06-12", "ignition_doy": 163, "sdd_doy": 132.92, "days_after_sdd": 30.08, "n_first_day_hotspots": 2, "dist_to_prev_perim_m": 0.0, "nearest_prev_fire_id": "2024_G90228" }, "geometry": { "type": "Point", "coordinates": [ 1306725.124180173035711, 1500320.546244490891695 ] } },
{ "type": "Feature", "properties": { "fire_id": "2025_G80473", "fire_year": 2025.0, "acq_date": "2025-06-03", "ignition_doy": 154, "sdd_doy": 141.29, "days_after_sdd": 12.71, "n_first_day_hotspots": 7, "dist_to_prev_perim_m": 24561.226633940492, "nearest_prev_fire_id": "2024_G80854" }, "geometry": { "type": "Point", "coordinates": [ 1325211.404250766150653, 1402982.668376585701481 ] } },
{ "type": "Feature", "properties": { "fire_id": "2025_G80476", "fire_year": 2025.0, "acq_date": "2025-06-03", "ignition_doy": 154, "sdd_doy": 144.8, "days_after_sdd": 9.2, "n_first_day_hotspots": 16, "dist_to_prev_perim_m": 9012.343855713043, "nearest_prev_fire_id": "2024_G80286" }, "geometry": { "type": "Point", "coordinates": [ 1331473.177496911026537, 1458733.17113191797398 ] } },
{ "type": "Feature", "properties": { "fire_id": "2025_G80497", "fire_year": 2025.0, "acq_date": "2025-06-05", "ignition_doy": 156, "sdd_doy": 124.47, "days_after_sdd": 31.53, "n_first_day_hotspots": 168, "dist_to_prev_perim_m": 16565.96930845522, "nearest_prev_fire_id": "2024_G80305" }, "geometry": { "type": "Point", "coordinates": [ 1352933.478397500235587, 1292807.823601557174698 ] } },
{ "type": "Feature", "properties": { "fire_id": "2025_G90220", "fire_year": 2025.0, "acq_date": "2025-05-04", "ignition_doy": 124, "sdd_doy": 109.67, "days_after_sdd": 14.33, "n_first_day_hotspots": 1, "dist_to_prev_perim_m": 8779.6666656487014, "nearest_prev_fire_id": "2024_G91977" }, "geometry": { "type": "Point", "coordinates": [ 1192240.75876048579812, 1577111.954041437245905 ] } },
{ "type": "Feature", "properties": { "fire_id": "2025_G90386", "fire_year": 2025.0, "acq_date": "2025-06-09", "ignition_doy": 160, "sdd_doy": 151.0, "days_after_sdd": 9.0, "n_first_day_hotspots": 1, "dist_to_prev_perim_m": 20230.497962114849, "nearest_prev_fire_id": "2024_G90228" }, "geometry": { "type": "Point", "coordinates": [ 1242229.526950609404594, 1592266.79512602952309 ] } },
{ "type": "Feature", "properties": { "fire_id": "2025_G90391", "fire_year": 2025.0, "acq_date": "2025-05-28", "ignition_doy": 148, "sdd_doy": 145.39, "days_after_sdd": 2.61, "n_first_day_hotspots": 4, "dist_to_prev_perim_m": 1259.1856938637854, "nearest_prev_fire_id": "2024_G90228" }, "geometry": { "type": "Point", "coordinates": [ 1258209.834394493605942, 1613546.316132338484749 ] } },
{ "type": "Feature", "properties": { "fire_id": "2025_G90397", "fire_year": 2025.0, "acq_date": "2025-06-01", "ignition_doy": 152, "sdd_doy": 105.67, "days_after_sdd": 46.33, "n_first_day_hotspots": 1, "dist_to_prev_perim_m": 0.0, "nearest_prev_fire_id": "2024_G80270" }, "geometry": { "type": "Point", "coordinates": [ 1258425.448161043226719, 1482367.368450248148292 ] } },
{ "type": "Feature", "properties": { "fire_id": "2025_G90400", "fire_year": 2025.0, "acq_date": "2025-06-20", "ignition_doy": 171, "sdd_doy": 150.7, "days_after_sdd": 20.3, "n_first_day_hotspots": 9, "dist_to_prev_perim_m": 5924.9626768706867, "nearest_prev_fire_id": "2024_G90228" }, "geometry": { "type": "Point", "coordinates": [ 1288716.504179253475741, 1626181.06661992543377 ] } },
{ "type": "Feature", "properties": { "fire_id": "2025_G90401", "fire_year": 2025.0, "acq_date": "2025-05-28", "ignition_doy": 148, "sdd_doy": 134.39, "days_after_sdd": 13.61, "n_first_day_hotspots": 36, "dist_to_prev_perim_m": 0.0, "nearest_prev_fire_id": "2024_G90228" }, "geometry": { "type": "Point", "coordinates": [ 1293281.4239374443423, 1540898.885116468882188 ] } },
{ "type": "Feature", "properties": { "fire_id": "2025_G90406", "fire_year": 2025.0, "acq_date": "2025-05-29", "ignition_doy": 149, "sdd_doy": 132.36, "days_after_sdd": 16.64, "n_first_day_hotspots": 3, "dist_to_prev_perim_m": 0.0, "nearest_prev_fire_id": "2024_G90228" }, "geometry": { "type": "Point", "coordinates": [ 1317535.411642922321334, 1511336.186430233763531 ] } },
{ "type": "Feature", "properties": { "fire_id": "2025_G90407", "fire_year": 2025.0, "acq_date": "2025-05-10", "ignition_doy": 130, "sdd_doy": 133.39, "days_after_sdd": -3.39, "n_first_day_hotspots": 3, "dist_to_prev_perim_m": 62.788488743074652, "nearest_prev_fire_id": "2024_G90228" }, "geometry": { "type": "Point", "coordinates": [ 1321282.756550573045388, 1596158.335981775308028 ] } },
{ "type": "Feature", "properties": { "fire_id": "2025_G90425", "fire_year": 2025.0, "acq_date": "2025-05-29", "ignition_doy": 149, "sdd_doy": 138.89, "days_after_sdd": 10.11, "n_first_day_hotspots": 14, "dist_to_prev_perim_m": 0.0, "nearest_prev_fire_id": "2024_G80270" }, "geometry": { "type": "Point", "coordinates": [ 1243425.07795539079234, 1479820.214865233516321 ] } },
{ "type": "Feature", "properties": { "fire_id": "2025_G90428", "fire_year": 2025.0, "acq_date": "2025-05-11", "ignition_doy": 131, "sdd_doy": 125.05, "days_after_sdd": 5.95, "n_first_day_hotspots": 3, "dist_to_prev_perim_m": 356.75632136742638, "nearest_prev_fire_id": "2024_G80286" }, "geometry": { "type": "Point", "coordinates": [ 1336768.008983609266579, 1495994.838883582968265 ] } },
{ "type": "Feature", "properties": { "fire_id": "2025_G90463", "fire_year": 2025.0, "acq_date": "2025-06-01", "ignition_doy": 152, "sdd_doy": 147.8, "days_after_sdd": 4.2, "n_first_day_hotspots": 16, "dist_to_prev_perim_m": 0.0, "nearest_prev_fire_id": "2024_G91714" }, "geometry": { "type": "Point", "coordinates": [ 1107874.514799441676587, 1637113.133975565200672 ] } },
{ "type": "Feature", "properties": { "fire_id": "2025_G90475", "fire_year": 2025.0, "acq_date": "2025-06-03", "ignition_doy": 154, "sdd_doy": 140.0, "days_after_sdd": 14.0, "n_first_day_hotspots": 4, "dist_to_prev_perim_m": 11128.940296215458, "nearest_prev_fire_id": "2024_G90228" }, "geometry": { "type": "Point", "coordinates": [ 1339393.460638609714806, 1589949.245234709465876 ] } },
{ "type": "Feature", "properties": { "fire_id": "2025_G90507", "fire_year": 2025.0, "acq_date": "2025-06-09", "ignition_doy": 160, "sdd_doy": 134.65, "days_after_sdd": 25.35, "n_first_day_hotspots": 1, "dist_to_prev_perim_m": 0.0, "nearest_prev_fire_id": "2024_G90228" }, "geometry": { "type": "Point", "coordinates": [ 1279205.053863020380959, 1536339.726326159900054 ] } },
{ "type": "Feature", "properties": { "fire_id": "2025_G90715", "fire_year": 2025.0, "acq_date": "2025-05-29", "ignition_doy": 149, "sdd_doy": 142.75, "days_after_sdd": 6.25, "n_first_day_hotspots": 1, "dist_to_prev_perim_m": 163.33189842503106, "nearest_prev_fire_id": "2024_G90228" }, "geometry": { "type": "Point", "coordinates": [ 1243244.791186594637111, 1543919.009608465712517 ] } }
]
}
